{"fetched_at":"2026-07-23T17:55:20.313Z","source":"https://celestrak.org/NORAD/elements/gp.php?NAME=BRO&FORMAT=JSON","constellation":"unseenlabs","records":[{"OBJECT_NAME":"BRO-5","OBJECT_ID":"2022-002CF","EPOCH":"2026-07-23T05:58:04.580832","CLASSIFICATION_TYPE":"U","MEAN_MOTION":15.49118212,"ECCENTRICITY":0.00062275,"INCLINATION":97.2974,"RA_OF_ASC_NODE":278.2825,"ARG_OF_PERICENTER":173.9728,"MEAN_ANOMALY":186.1599,"EPHEMERIS_TYPE":0,"NORAD_CAT_ID":51061,"ELEMENT_SET_NO":999,"REV_AT_EPOCH":25183,"BSTAR":0.00027234522,"MEAN_MOTION_DOT":0.00014722,"MEAN_MOTION_DDOT":0},{"OBJECT_NAME":"BRO-6","OBJECT_ID":"2022-047AE","EPOCH":"2026-07-23T04:24:14.899392","CLASSIFICATION_TYPE":"U","MEAN_MOTION":15.53087989,"ECCENTRICITY":0.0003171,"INCLINATION":97.3382,"RA_OF_ASC_NODE":295.9938,"ARG_OF_PERICENTER":266.7262,"MEAN_ANOMALY":93.3628,"EPHEMERIS_TYPE":0,"NORAD_CAT_ID":52422,"ELEMENT_SET_NO":999,"REV_AT_EPOCH":23673,"BSTAR":0.00078710148,"MEAN_MOTION_DOT":0.00049375,"MEAN_MOTION_DDOT":0},{"OBJECT_NAME":"BRO-8","OBJECT_ID":"2023-001C","EPOCH":"2026-07-23T04:44:26.152224","CLASSIFICATION_TYPE":"U","MEAN_MOTION":15.51161134,"ECCENTRICITY":0.00040544,"INCLINATION":97.318,"RA_OF_ASC_NODE":269.9503,"ARG_OF_PERICENTER":7.9191,"MEAN_ANOMALY":352.2125,"EPHEMERIS_TYPE":0,"NORAD_CAT_ID":55011,"ELEMENT_SET_NO":999,"REV_AT_EPOCH":19778,"BSTAR":0.00068266567,"MEAN_MOTION_DOT":0.00039917,"MEAN_MOTION_DDOT":0},{"OBJECT_NAME":"BRO-11","OBJECT_ID":"2023-174J","EPOCH":"2026-07-23T06:38:22.888320","CLASSIFICATION_TYPE":"U","MEAN_MOTION":15.27641695,"ECCENTRICITY":0.00119562,"INCLINATION":97.3891,"RA_OF_ASC_NODE":280.7933,"ARG_OF_PERICENTER":83.2243,"MEAN_ANOMALY":277.0357,"EPHEMERIS_TYPE":0,"NORAD_CAT_ID":58264,"ELEMENT_SET_NO":999,"REV_AT_EPOCH":15026,"BSTAR":0.00015968478,"MEAN_MOTION_DOT":0.00004248,"MEAN_MOTION_DDOT":0},{"OBJECT_NAME":"BRO-13","OBJECT_ID":"2024-043K","EPOCH":"2026-07-23T07:54:26.196768","CLASSIFICATION_TYPE":"U","MEAN_MOTION":14.96671776,"ECCENTRICITY":0.00075652,"INCLINATION":97.8541,"RA_OF_ASC_NODE":335.4722,"ARG_OF_PERICENTER":231.6433,"MEAN_ANOMALY":128.4109,"EPHEMERIS_TYPE":0,"NORAD_CAT_ID":59107,"ELEMENT_SET_NO":999,"REV_AT_EPOCH":13002,"BSTAR":0.00011375234,"MEAN_MOTION_DOT":0.00001239,"MEAN_MOTION_DDOT":0},{"OBJECT_NAME":"BRO-12","OBJECT_ID":"2024-043L","EPOCH":"2026-07-23T07:40:23.262816","CLASSIFICATION_TYPE":"U","MEAN_MOTION":14.96913838,"ECCENTRICITY":0.00070571,"INCLINATION":97.8526,"RA_OF_ASC_NODE":335.633,"ARG_OF_PERICENTER":223.2908,"MEAN_ANOMALY":136.7759,"EPHEMERIS_TYPE":0,"NORAD_CAT_ID":59108,"ELEMENT_SET_NO":999,"REV_AT_EPOCH":13004,"BSTAR":0.00015956813,"MEAN_MOTION_DOT":0.00001773,"MEAN_MOTION_DDOT":0},{"OBJECT_NAME":"BRO-14","OBJECT_ID":"2024-149CM","EPOCH":"2026-07-23T04:12:01.612224","CLASSIFICATION_TYPE":"U","MEAN_MOTION":14.96252866,"ECCENTRICITY":0.00061063,"INCLINATION":97.686,"RA_OF_ASC_NODE":279.3055,"ARG_OF_PERICENTER":351.4204,"MEAN_ANOMALY":8.6912,"EPHEMERIS_TYPE":0,"NORAD_CAT_ID":60551,"ELEMENT_SET_NO":999,"REV_AT_EPOCH":10537,"BSTAR":0.000079102875,"MEAN_MOTION_DOT":0.00000836,"MEAN_MOTION_DDOT":0},{"OBJECT_NAME":"BRO-15","OBJECT_ID":"2024-149CP","EPOCH":"2026-07-23T03:47:14.601696","CLASSIFICATION_TYPE":"U","MEAN_MOTION":14.9623356,"ECCENTRICITY":0.00069547,"INCLINATION":97.679,"RA_OF_ASC_NODE":278.8566,"ARG_OF_PERICENTER":338.6919,"MEAN_ANOMALY":21.4012,"EPHEMERIS_TYPE":0,"NORAD_CAT_ID":60553,"ELEMENT_SET_NO":999,"REV_AT_EPOCH":10538,"BSTAR":0.00010914973,"MEAN_MOTION_DOT":0.00001175,"MEAN_MOTION_DDOT":0},{"OBJECT_NAME":"BRO-16","OBJECT_ID":"2025-009AX","EPOCH":"2026-07-23T06:07:47.189856","CLASSIFICATION_TYPE":"U","MEAN_MOTION":15.24168499,"ECCENTRICITY":0.00027674,"INCLINATION":97.4046,"RA_OF_ASC_NODE":284.2986,"ARG_OF_PERICENTER":137.5387,"MEAN_ANOMALY":222.6065,"EPHEMERIS_TYPE":0,"NORAD_CAT_ID":62654,"ELEMENT_SET_NO":999,"REV_AT_EPOCH":8429,"BSTAR":0.0001433877,"MEAN_MOTION_DOT":0.00003419,"MEAN_MOTION_DDOT":0},{"OBJECT_NAME":"BRO-18","OBJECT_ID":"2025-135Y","EPOCH":"2026-07-23T06:39:10.448064","CLASSIFICATION_TYPE":"U","MEAN_MOTION":15.22216633,"ECCENTRICITY":0.00026854,"INCLINATION":97.4653,"RA_OF_ASC_NODE":319.0365,"ARG_OF_PERICENTER":104.1005,"MEAN_ANOMALY":256.053,"EPHEMERIS_TYPE":0,"NORAD_CAT_ID":64550,"ELEMENT_SET_NO":999,"REV_AT_EPOCH":6036,"BSTAR":0.0001771986,"MEAN_MOTION_DOT":0.00004001,"MEAN_MOTION_DDOT":0},{"OBJECT_NAME":"BRO-17","OBJECT_ID":"2025-276G","EPOCH":"2026-07-23T04:06:41.697216","CLASSIFICATION_TYPE":"U","MEAN_MOTION":15.18191712,"ECCENTRICITY":0.00055916,"INCLINATION":97.4176,"RA_OF_ASC_NODE":276.584,"ARG_OF_PERICENTER":224.7423,"MEAN_ANOMALY":135.3361,"EPHEMERIS_TYPE":0,"NORAD_CAT_ID":66672,"ELEMENT_SET_NO":999,"REV_AT_EPOCH":3585,"BSTAR":0.00012894169,"MEAN_MOTION_DOT":0.00002569,"MEAN_MOTION_DDOT":0},{"OBJECT_NAME":"BRO-20","OBJECT_ID":"2025-276J","EPOCH":"2026-07-23T03:30:53.656704","CLASSIFICATION_TYPE":"U","MEAN_MOTION":15.18358934,"ECCENTRICITY":0.0005099,"INCLINATION":97.4155,"RA_OF_ASC_NODE":276.5473,"ARG_OF_PERICENTER":227.6866,"MEAN_ANOMALY":132.3937,"EPHEMERIS_TYPE":0,"NORAD_CAT_ID":66674,"ELEMENT_SET_NO":999,"REV_AT_EPOCH":3585,"BSTAR":0.00012551935,"MEAN_MOTION_DOT":0.00002512,"MEAN_MOTION_DDOT":0},{"OBJECT_NAME":"BRO-19","OBJECT_ID":"2026-067G","EPOCH":"2026-07-22T19:42:25.979328","CLASSIFICATION_TYPE":"U","MEAN_MOTION":15.19027563,"ECCENTRICITY":0.00027624,"INCLINATION":97.4492,"RA_OF_ASC_NODE":161.7746,"ARG_OF_PERICENTER":99.2301,"MEAN_ANOMALY":260.9246,"EPHEMERIS_TYPE":0,"NORAD_CAT_ID":68422,"ELEMENT_SET_NO":999,"REV_AT_EPOCH":1735,"BSTAR":0.00017081656,"MEAN_MOTION_DOT":0.00003509,"MEAN_MOTION_DDOT":0},{"OBJECT_NAME":"BRO-21","OBJECT_ID":"2026-100AD","EPOCH":"2026-07-23T07:05:18.367872","CLASSIFICATION_TYPE":"U","MEAN_MOTION":15.21657225,"ECCENTRICITY":0.00061234,"INCLINATION":97.4001,"RA_OF_ASC_NODE":101.5954,"ARG_OF_PERICENTER":294.0723,"MEAN_ANOMALY":65.9872,"EPHEMERIS_TYPE":0,"NORAD_CAT_ID":69007,"ELEMENT_SET_NO":999,"REV_AT_EPOCH":1229,"BSTAR":0.0001187935,"MEAN_MOTION_DOT":0.00002616,"MEAN_MOTION_DDOT":0},{"OBJECT_NAME":"BRO-22","OBJECT_ID":"2026-132C","EPOCH":"2026-07-23T02:43:32.681280","CLASSIFICATION_TYPE":"U","MEAN_MOTION":14.99832539,"ECCENTRICITY":0.00175071,"INCLINATION":97.6823,"RA_OF_ASC_NODE":267.3313,"ARG_OF_PERICENTER":152.531,"MEAN_ANOMALY":207.6843,"EPHEMERIS_TYPE":0,"NORAD_CAT_ID":69504,"ELEMENT_SET_NO":999,"REV_AT_EPOCH":616,"BSTAR":0.00015001721,"MEAN_MOTION_DOT":0.00001803,"MEAN_MOTION_DDOT":0}]}
