BRO-5                   
1 51061U 22002CF  26204.24866413  .00014722  00000+0  27235-3 0  9994
2 51061  97.2974 278.2825 0006227 173.9728 186.1599 15.49118212251833
BRO-6                   
1 52422U 22047AE  26204.18350578  .00049375  00000+0  78710-3 0  9994
2 52422  97.3382 295.9938 0003171 266.7262  93.3628 15.53087989236734
BRO-8                   
1 55011U 23001C   26204.19752491  .00039917  00000+0  68267-3 0  9990
2 55011  97.3180 269.9503 0004054   7.9191 352.2125 15.51161134197786
BRO-11                  
1 58264U 23174J   26204.27665380  .00004248  00000+0  15968-3 0  9992
2 58264  97.3891 280.7933 0011956  83.2243 277.0357 15.27641695150261
BRO-13                  
1 59107U 24043K   26204.32946987  .00001239  00000+0  11375-3 0  9991
2 59107  97.8541 335.4722 0007565 231.6433 128.4109 14.96671776130024
BRO-12                  
1 59108U 24043L   26204.31971369  .00001773  00000+0  15957-3 0  9996
2 59108  97.8526 335.6330 0007057 223.2908 136.7759 14.96913838130048
BRO-14                  
1 60551U 24149CM  26204.17501866  .00000836  00000+0  79103-4 0  9995
2 60551  97.6860 279.3055 0006106 351.4204   8.6912 14.96252866105379
BRO-15                  
1 60553U 24149CP  26204.15780789  .00001175  00000+0  10915-3 0  9990
2 60553  97.6790 278.8566 0006954 338.6919  21.4012 14.96233560105380
BRO-16                  
1 62654U 25009AX  26204.25540729  .00003419  00000+0  14339-3 0  9996
2 62654  97.4046 284.2986 0002767 137.5387 222.6065 15.24168499 84295
BRO-18                  
1 64550U 25135Y   26204.27720426  .00004001  00000+0  17720-3 0  9994
2 64550  97.4653 319.0365 0002685 104.1005 256.0530 15.22216633 60362
BRO-17                  
1 66672U 25276G   26204.17131594  .00002569  00000+0  12894-3 0  9992
2 66672  97.4176 276.5840 0005591 224.7423 135.3361 15.18191712 35858
BRO-20                  
1 66674U 25276J   26204.14645436  .00002512  00000+0  12552-3 0  9995
2 66674  97.4155 276.5473 0005099 227.6866 132.3937 15.18358934 35852
BRO-19                  
1 68422U 26067G   26203.82113402  .00003509  00000+0  17082-3 0  9994
2 68422  97.4492 161.7746 0002762  99.2301 260.9246 15.19027563 17356
BRO-21                  
1 69007U 26100AD  26204.29535148  .00002616  00000+0  11879-3 0  9995
2 69007  97.4001 101.5954 0006123 294.0723  65.9872 15.21657225 12296
BRO-22                  
1 69504U 26132C   26204.11357270  .00001803  00000+0  15002-3 0  9990
2 69504  97.6823 267.3313 0017507 152.5310 207.6843 14.99832539  6169
